{"type": "FeatureCollection", "features": [ {"type": "Feature", "properties": {"norad_id": 30345, "name": "FENGYUN 1C DEB", "group": "fengyun-1c-debris", "lat": -42.716190074505626, "lon": 62.76106736767947, "alt_km": 760.8597825213656, "timestamp": "2025-12-20T16:47:36.562377+00:00", "meta": {"OBJECT_NAME": "FENGYUN 1C DEB", "OBJECT_ID": "1999-025ABG", "EPOCH": "2025-12-20T03:40:11.327232", "MEAN_MOTION": 14.41747511, "ECCENTRICITY": 0.00178475, "INCLINATION": 98.9209, "RA_OF_ASC_NODE": 53.8515, "ARG_OF_PERICENTER": 221.2494, "MEAN_ANOMALY": 138.7347, "EPHEMERIS_TYPE": 0, "CLASSIFICATION_TYPE": "U", "NORAD_CAT_ID": 30345, "ELEMENT_SET_NO": 999, "REV_AT_EPOCH": 97880, "BSTAR": 0.0013189798, "MEAN_MOTION_DOT": 4.267e-05, "MEAN_MOTION_DDOT": 0}, "tle": {"line1": "1 30345U 99025ABG 25354.15290888  .00004267  00000+0  13190-2 0  9994", "line2": "2 30345  98.9209  53.8515 0017847 221.2494 138.7347 14.41747511978802"}}, "geometry": {"type": "Point", "coordinates": [62.76106736767947, -42.716190074505626]}}, {"type": "Feature", "properties": {"norad_id": 30346, "name": "FENGYUN 1C DEB", "group": "fengyun-1c-debris", "lat": 13.639719021679827, "lon": -86.29317185986946, "alt_km": 817.7596600994748, "timestamp": "2025-12-20T16:47:36.562387+00:00", "meta": {"OBJECT_NAME": "FENGYUN 1C DEB", "OBJECT_ID": "1999-025ABH", "EPOCH": "2025-12-20T06:06:03.369024", "MEAN_MOTION": 14.33963248, "ECCENTRICITY": 0.0055081, "INCLINATION": 98.8087, "RA_OF_ASC_NODE": 91.0968, "ARG_OF_PERICENTER": 1.2817, "MEAN_ANOMALY": 26.0457, "EPHEMERIS_TYPE": 0, "CLASSIFICATION_TYPE": "U", "NORAD_CAT_ID": 30346, "ELEMENT_SET_NO": 999, "REV_AT_EPOCH": 97521, "BSTAR": 0.0012644, "MEAN_MOTION_DOT": 3.543e-05, "MEAN_MOTION_DDOT": 0}, "tle": {"line1": "1 30346U 99025ABH 25354.25420566  .00003543  00000+0  12644-2 0  9993", "line2": "2 30346  98.8087  91.0968 0055081   1.2817  26.0457 14.33963248975210"}}, "geometry": {"type": "Point", "coordinates": [-86.29317185986946, 13.639719021679827]}}, {"type": "Feature", "properties": {"norad_id": 30347, "name": "FENGYUN 1C DEB", "group": "fengyun-1c-debris", "lat": 76.553100418513, "lon": 35.8676109830934, "alt_km": 907.9138990566826, "timestamp": "2025-12-20T16:47:36.562398+00:00", "meta": {"OBJECT_NAME": "FENGYUN 1C DEB", "OBJECT_ID": "1999-025ABJ", "EPOCH": "2025-12-20T11:24:31.845312", "MEAN_MOTION": 13.92772169, "ECCENTRICITY": 0.0150266, "INCLINATION": 98.3766, "RA_OF_ASC_NODE": 177.6227, "ARG_OF_PERICENTER": 12.2713, "MEAN_ANOMALY": 42.228, "EPHEMERIS_TYPE": 0, "CLASSIFICATION_TYPE": "U", "NORAD_CAT_ID": 30347, "ELEMENT_SET_NO": 999, "REV_AT_EPOCH": 96068, "BSTAR": 0.00012491, "MEAN_MOTION_DOT": 1.39e-06, "MEAN_MOTION_DDOT": 0}, "tle": {"line1": "1 30347U 99025ABJ 25354.47536858  .00000139  00000+0  12491-3 0  9999", "line2": "2 30347  98.3766 177.6227 0150266  12.2713  42.2280 13.92772169960680"}}, "geometry": {"type": "Point", "coordinates": [35.8676109830934, 76.553100418513]}}, {"type": "Feature", "properties": {"norad_id": 30348, "name": "FENGYUN 1C DEB", "group": "fengyun-1c-debris", "lat": 45.489396681829874, "lon": -81.19921949296459, "alt_km": 780.2142297161554, "timestamp": "2025-12-20T16:47:36.562408+00:00", "meta": {"OBJECT_NAME": "FENGYUN 1C DEB", "OBJECT_ID": "1999-025ABK", "EPOCH": "2025-12-18T05:44:27.722400", "MEAN_MOTION": 14.3515849, "ECCENTRICITY": 0.00171168, "INCLINATION": 98.8637, "RA_OF_ASC_NODE": 87.1417, "ARG_OF_PERICENTER": 358.3935, "MEAN_ANOMALY": 29.9021, "EPHEMERIS_TYPE": 0, "CLASSIFICATION_TYPE": "U", "NORAD_CAT_ID": 30348, "ELEMENT_SET_NO": 999, "REV_AT_EPOCH": 97613, "BSTAR": 0.0015567864, "MEAN_MOTION_DOT": 4.411e-05, "MEAN_MOTION_DDOT": 0}, "tle": {"line1": "1 30348U 99025ABK 25352.23920975  .00004411  00000+0  15568-2 0  9993", "line2": "2 30348  98.8637  87.1417 0017116 358.3935  29.9021 14.35158490976130"}}, "geometry": {"type": "Point", "coordinates": [-81.19921949296459, 45.489396681829874]}}, {"type": "Feature", "properties": {"norad_id": 30349, "name": "FENGYUN 1C DEB", "group": "fengyun-1c-debris", "lat": 35.46735524731468, "lon": 142.9734403636658, "alt_km": 910.8438768873948, "timestamp": "2025-12-20T16:47:36.562418+00:00", "meta": {"OBJECT_NAME": "FENGYUN 1C DEB", "OBJECT_ID": "1999-025ABL", "EPOCH": "2025-12-19T08:31:11.275104", "MEAN_MOTION": 14.11153298, "ECCENTRICITY": 0.0089157, "INCLINATION": 98.5846, "RA_OF_ASC_NODE": 315.5097, "ARG_OF_PERICENTER": 353.7314, "MEAN_ANOMALY": 162.1427, "EPHEMERIS_TYPE": 0, "CLASSIFICATION_TYPE": "U", "NORAD_CAT_ID": 30349, "ELEMENT_SET_NO": 999, "REV_AT_EPOCH": 96324, "BSTAR": 0.0015752, "MEAN_MOTION_DOT": 2.905e-05, "MEAN_MOTION_DDOT": 0}, "tle": {"line1": "1 30349U 99025ABL 25353.35499161  .00002905  00000+0  15752-2 0  9997", "line2": "2 30349  98.5846 315.5097 0089157 353.7314 162.1427 14.11153298963249"}}, "geometry": {"type": "Point", "coordinates": [142.9734403636658, 35.46735524731468]}}, {"type": "Feature", "properties": {"norad_id": 30350, "name": "FENGYUN 1C DEB", "group": "fengyun-1c-debris", "lat": -6.917160107168803, "lon": 172.95567502610743, "alt_km": 890.317988301792, "timestamp": "2025-12-20T16:47:36.562429+00:00", "meta": {"OBJECT_NAME": "FENGYUN 1C DEB", "OBJECT_ID": "1999-025ABM", "EPOCH": "2025-12-20T00:06:03.853728", "MEAN_MOTION": 13.82826768, "ECCENTRICITY": 0.0219274, "INCLINATION": 98.0926, "RA_OF_ASC_NODE": 171.368, "ARG_OF_PERICENTER": 288.6413, "MEAN_ANOMALY": 201.7092, "EPHEMERIS_TYPE": 0, "CLASSIFICATION_TYPE": "U", "NORAD_CAT_ID": 30350, "ELEMENT_SET_NO": 999, "REV_AT_EPOCH": 95082, "BSTAR": 0.00059104, "MEAN_MOTION_DOT": 7.37e-06, "MEAN_MOTION_DDOT": 0}, "tle": {"line1": "1 30350U 99025ABM 25354.00421127  .00000737  00000+0  59104-3 0  9990", "line2": "2 30350  98.0926 171.3680 0219274 288.6413 201.7092 13.82826768950826"}}, "geometry": {"type": "Point", "coordinates": [172.95567502610743, -6.917160107168803]}}, {"type": "Feature", "properties": {"norad_id": 30352, "name": "FENGYUN 1C DEB", "group": "fengyun-1c-debris", "lat": -69.95643284871683, "lon": 170.52843805141657, "alt_km": 860.5287864993243, "timestamp": "2025-12-20T16:47:36.562439+00:00", "meta": {"OBJECT_NAME": "FENGYUN 1C DEB", "OBJECT_ID": "1999-025ABP", "EPOCH": "2025-12-20T00:23:04.650720", "MEAN_MOTION": 14.07589056, "ECCENTRICITY": 0.00276591, "INCLINATION": 98.7635, "RA_OF_ASC_NODE": 14.8771, "ARG_OF_PERICENTER": 298.1739, "MEAN_ANOMALY": 91.2979, "EPHEMERIS_TYPE": 0, "CLASSIFICATION_TYPE": "U", "NORAD_CAT_ID": 30352, "ELEMENT_SET_NO": 999, "REV_AT_EPOCH": 97013, "BSTAR": 0.00016530509, "MEAN_MOTION_DOT": 2.37e-06, "MEAN_MOTION_DDOT": 0}, "tle": {"line1": "1 30352U 99025ABP 25354.01602605  .00000237  00000+0  16531-3 0  9997", "line2": "2 30352  98.7635  14.8771 0027659 298.1739  91.2979 14.07589056970131"}}, "geometry": {"type": "Point", "coordinates": [170.52843805141657, -69.95643284871683]}}, {"type": "Feature", "properties": {"norad_id": 30355, "name": "FENGYUN 1C DEB", "group": "fengyun-1c-debris", "lat": -23.728423972304014, "lon": 174.99256877540302, "alt_km": 829.4007477807909, "timestamp": "2025-12-20T16:47:36.562450+00:00", "meta": {"OBJECT_NAME": "FENGYUN 1C DEB", "OBJECT_ID": "1999-025ABS", "EPOCH": "2025-12-20T11:29:07.214208", "MEAN_MOTION": 14.18839379, "ECCENTRICITY": 0.0053008, "INCLINATION": 98.5886, "RA_OF_ASC_NODE": 358.5873, "ARG_OF_PERICENTER": 286.8502, "MEAN_ANOMALY": 228.5799, "EPHEMERIS_TYPE": 0, "CLASSIFICATION_TYPE": "U", "NORAD_CAT_ID": 30355, "ELEMENT_SET_NO": 999, "REV_AT_EPOCH": 97460, "BSTAR": 0.00045812, "MEAN_MOTION_DOT": 9.23e-06, "MEAN_MOTION_DDOT": 0}, "tle": {"line1": "1 30355U 99025ABS 25354.47855572  .00000923  00000+0  45812-3 0  9999", "line2": "2 30355  98.5886 358.5873 0053008 286.8502 228.5799 14.18839379974609"}}, "geometry": {"type": "Point", "coordinates": [174.99256877540302, -23.728423972304014]}}, {"type": "Feature", "properties": {"norad_id": 30356, "name": "FENGYUN 1C DEB", "group": "fengyun-1c-debris", "lat": -18.773458174178472, "lon": 166.72339459774253, "alt_km": 839.1795964798275, "timestamp": "2025-12-20T16:47:36.562460+00:00", "meta": {"OBJECT_NAME": "FENGYUN 1C DEB", "OBJECT_ID": "1999-025ABT", "EPOCH": "2025-12-19T23:06:46.936800", "MEAN_MOTION": 14.13052952, "ECCENTRICITY": 0.0051987, "INCLINATION": 98.6814, "RA_OF_ASC_NODE": 348.9859, "ARG_OF_PERICENTER": 268.1335, "MEAN_ANOMALY": 145.8853, "EPHEMERIS_TYPE": 0, "CLASSIFICATION_TYPE": "U", "NORAD_CAT_ID": 30356, "ELEMENT_SET_NO": 999, "REV_AT_EPOCH": 97123, "BSTAR": 0.00049919, "MEAN_MOTION_DOT": 9.01e-06, "MEAN_MOTION_DDOT": 0}, "tle": {"line1": "1 30356U 99025ABT 25353.96304325  .00000901  00000+0  49919-3 0  9996", "line2": "2 30356  98.6814 348.9859 0051987 268.1335 145.8853 14.13052952971237"}}, "geometry": {"type": "Point", "coordinates": [166.72339459774253, -18.773458174178472]}}, {"type": "Feature", "properties": {"norad_id": 30357, "name": "FENGYUN 1C DEB", "group": "fengyun-1c-debris", "lat": 16.74189666109562, "lon": -155.60974412942383, "alt_km": 904.7898935755547, "timestamp": "2025-12-20T16:47:36.562470+00:00", "meta": {"OBJECT_NAME": "FENGYUN 1C DEB", "OBJECT_ID": "1999-025ABU", "EPOCH": "2025-12-20T00:46:34.733280", "MEAN_MOTION": 14.05264651, "ECCENTRICITY": 0.00486328, "INCLINATION": 98.8052, "RA_OF_ASC_NODE": 21.0699, "ARG_OF_PERICENTER": 309.3636, "MEAN_ANOMALY": 79.5198, "EPHEMERIS_TYPE": 0, "CLASSIFICATION_TYPE": "U", "NORAD_CAT_ID": 30357, "ELEMENT_SET_NO": 999, "REV_AT_EPOCH": 96909, "BSTAR": 0.00010849226, "MEAN_MOTION_DOT": 1.34e-06, "MEAN_MOTION_DDOT": 0}, "tle": {"line1": "1 30357U 99025ABU 25354.03234645  .00000134  00000+0  10849-3 0  9991", "line2": "2 30357  98.8052  21.0699 0048632 309.3636  79.5198 14.05264651969098"}}, "geometry": {"type": "Point", "coordinates": [-155.60974412942383, 16.74189666109562]}}]}